{
"type": "FeatureCollection",
"name": "network_lines (1)",
"crs": { "type": "name", "properties": { "name": "urn:ogc:def:crs:OGC:1.3:CRS84" } },
"features": [
{ "type": "Feature", "properties": { "id": 1, "entrypoint": "highway_one_floor", "floor": 1 }, "geometry": { "type": "MultiLineString", "coordinates": [ [ [ 105.76929622354983, 10.031474607155152 ], [ 105.769233350333749, 10.031403666286865 ], [ 105.769171455909387, 10.031333829789887 ], [ 105.769105083551523, 10.03125894075016 ], [ 105.769056800791546, 10.031294721777289 ], [ 105.769087668896404, 10.031333844178256 ], [ 105.769118113173178, 10.03137242941264 ], [ 105.769118110050371, 10.031372440557227 ], [ 105.769154804620626, 10.031418932337409 ], [ 105.769160832717802, 10.031426572377381 ] ] ] } },
{ "type": "Feature", "properties": { "id": 220, "entrypoint": "220highway", "floor": 1 }, "geometry": { "type": "MultiLineString", "coordinates": [ [ [ 105.76910508355158, 10.031455858888149 ], [ 105.769105735139519, 10.031455374853982 ], [ 105.769154735152696, 10.031418975039427 ] ] ] } },
{ "type": "Feature", "properties": { "id": 219, "entrypoint": "219highway", "floor": 1 }, "geometry": { "type": "MultiLineString", "coordinates": [ [ [ 105.769069244801912, 10.031409172022451 ], [ 105.769072906093641, 10.031406419870203 ], [ 105.769118113173178, 10.03137242941264 ], [ 105.769118110050371, 10.031372440557227 ], [ 105.769118149762406, 10.031372410706144 ] ] ] } },
{ "type": "Feature", "properties": { "id": 218, "entrypoint": "218highway", "floor": 1 }, "geometry": { "type": "MultiLineString", "coordinates": [ [ [ 105.769033281612153, 10.031364813366929 ], [ 105.769087537497086, 10.031333933857278 ] ] ] } },
{ "type": "Feature", "properties": { "id": 218, "entrypoint": "218highway", "floor": 1 }, "geometry": { "type": "MultiLineString", "coordinates": [ [ [ 105.769003913747866, 10.031323640686745 ], [ 105.769004829533159, 10.031322912507077 ], [ 105.769050454346385, 10.031286634285205 ], [ 105.769056676351553, 10.031294966852807 ] ] ] } },
{ "type": "Feature", "properties": { "id": null, "entrypoint": null, "floor": 1 }, "geometry": { "type": "MultiLineString", "coordinates": [ [ [ 105.769154735152696, 10.031418975039426 ], [ 105.769154735152696, 10.031418975039426 ], [ 105.769154804620626, 10.031418932337409 ], [ 105.769154804620626, 10.031418932337409 ], [ 105.769154804620626, 10.031418932337409 ], [ 105.769154804620626, 10.031418932337409 ], [ 105.769154804620626, 10.031418932337409 ], [ 105.769154804620626, 10.031418932337409 ], [ 105.769154804620626, 10.031418932337409 ] ] ] } },
{ "type": "Feature", "properties": { "id": null, "entrypoint": null, "floor": 1 }, "geometry": { "type": "MultiLineString", "coordinates": [ [ [ 105.769105332431806, 10.031455736350452 ], [ 105.769105332431806, 10.031455736350452 ], [ 105.769105735139519, 10.031455374853982 ], [ 105.769105735139519, 10.031455374853982 ] ] ] } },
{ "type": "Feature", "properties": { "id": null, "entrypoint": null, "floor": 1 }, "geometry": { "type": "MultiLineString", "coordinates": [ [ [ 105.769069493682125, 10.031409172022453 ], [ 105.769072906093641, 10.031406419870203 ], [ 105.769072906093641, 10.031406419870203 ], [ 105.769069493682125, 10.031409172022453 ], [ 105.769069493682125, 10.031409172022453 ] ] ] } },
{ "type": "Feature", "properties": { "id": null, "entrypoint": null, "floor": 1 }, "geometry": { "type": "MultiLineString", "coordinates": [ [ [ 105.769118110050371, 10.031372440557227 ], [ 105.769118117530184, 10.031372434934735 ], [ 105.769118117530184, 10.031372434934735 ], [ 105.769118110284836, 10.031372440380993 ], [ 105.769118110284836, 10.031372440380993 ], [ 105.769118117530184, 10.031372434934735 ], [ 105.769118117530184, 10.031372434934735 ], [ 105.769118113173178, 10.03137242941264 ], [ 105.769118113173178, 10.03137242941264 ] ] ] } },
{ "type": "Feature", "properties": { "id": null, "entrypoint": null, "floor": 1 }, "geometry": { "type": "MultiLineString", "coordinates": [ [ [ 105.769087537497072, 10.031333933857278 ], [ 105.769087537497072, 10.031333933857278 ], [ 105.769087668896404, 10.031333844178256 ], [ 105.769087668896404, 10.031333844178256 ] ] ] } },
{ "type": "Feature", "properties": { "id": null, "entrypoint": null, "floor": 1 }, "geometry": { "type": "MultiLineString", "coordinates": [ [ [ 105.769033157172032, 10.031365058442384 ], [ 105.769033157172032, 10.031365058442384 ], [ 105.769033281612138, 10.031364813366929 ], [ 105.769033281612138, 10.031364813366929 ] ] ] } },
{ "type": "Feature", "properties": { "id": null, "entrypoint": null, "floor": 1 }, "geometry": { "type": "MultiLineString", "coordinates": [ [ [ 105.769004287068128, 10.031323885762234 ], [ 105.769004287068128, 10.031323885762234 ], [ 105.769004829533159, 10.031322912507077 ], [ 105.769004829533159, 10.031322912507077 ] ] ] } },
{ "type": "Feature", "properties": { "id": null, "entrypoint": null, "floor": 1 }, "geometry": { "type": "MultiLineString", "coordinates": [ [ [ 105.769056676351553, 10.031294966852807 ], [ 105.769056676351553, 10.031294966852807 ], [ 105.769056800791546, 10.031294721777289 ], [ 105.769056800791546, 10.031294721777289 ] ] ] } },
{ "type": "Feature", "properties": { "id": null, "entrypoint": null, "floor": 1 }, "geometry": { "type": "MultiLineString", "coordinates": [ [ [ 105.769205382274663, 10.031426817452799 ], [ 105.769205382274663, 10.031426817452799 ], [ 105.769233350333749, 10.031403666286865 ], [ 105.769233350333749, 10.031403666286865 ] ] ] } },
{ "type": "Feature", "properties": { "id": null, "entrypoint": null, "floor": 1 }, "geometry": { "type": "MultiLineString", "coordinates": [ [ [ 105.769146646546019, 10.031352804669076 ], [ 105.769146646546019, 10.031352804669076 ], [ 105.769171455909387, 10.031333829789887 ], [ 105.769171455909387, 10.031333829789887 ] ] ] } }
]
}
