{
"type": "FeatureCollection",
"name": "rooms",
"crs": { "type": "name", "properties": { "name": "urn:ogc:def:crs:OGC:1.3:CRS84" } },
"features": [
{ "type": "Feature", "properties": { "id": 220, "entrypoint": "220/DI-1", "name": "220/DI" }, "geometry": { "type": "Point", "coordinates": [ 105.769105332431806, 10.031455736350454 ] } },
{ "type": "Feature", "properties": { "id": 219, "entrypoint": "219/DI-1", "name": "219/DI" }, "geometry": { "type": "Point", "coordinates": [ 105.769069493682125, 10.031409172022453 ] } },
{ "type": "Feature", "properties": { "id": 218, "entrypoint": "218/DI-1", "name": "218/DI" }, "geometry": { "type": "Point", "coordinates": [ 105.769033157172032, 10.031365058442386 ] } },
{ "type": "Feature", "properties": { "id": 217, "entrypoint": "217/DI-1", "name": "217/DI" }, "geometry": { "type": "Point", "coordinates": [ 105.769004287068128, 10.031323885762234 ] } },
{ "type": "Feature", "properties": { "id": 214, "entrypoint": "214/DI-1", "name": "214/DI" }, "geometry": { "type": "Point", "coordinates": [ 105.769205382274663, 10.031426817452799 ] } },
{ "type": "Feature", "properties": { "id": 213, "entrypoint": "213/DI-1", "name": "213/DI" }, "geometry": { "type": "Point", "coordinates": [ 105.769146646546019, 10.031352804669076 ] } }
]
}
